{"type": "FeatureCollection", "features": [ {"type": "Feature", "properties": {"norad_id": 33841, "name": "COSMOS 2251 DEB", "group": "cosmos-2251-debris", "lat": 69.90304881214341, "lon": 32.08503973923271, "alt_km": 765.8174734709455, "timestamp": "2025-12-20T14:38:02.361875+00:00", "meta": {"OBJECT_NAME": "COSMOS 2251 DEB", "OBJECT_ID": "1993-036CJ", "EPOCH": "2025-12-20T04:50:53.448864", "MEAN_MOTION": 14.3787057, "ECCENTRICITY": 0.00208485, "INCLINATION": 74.0378, "RA_OF_ASC_NODE": 264.3028, "ARG_OF_PERICENTER": 343.2857, "MEAN_ANOMALY": 169.0859, "EPHEMERIS_TYPE": 0, "CLASSIFICATION_TYPE": "U", "NORAD_CAT_ID": 33841, "ELEMENT_SET_NO": 999, "REV_AT_EPOCH": 88221, "BSTAR": 0.00015733139, "MEAN_MOTION_DOT": 4.49e-06, "MEAN_MOTION_DDOT": 0}, "tle": {"line1": "1 33841U 93036CJ  25354.20200751  .00000449  00000+0  15733-3 0  9994", "line2": "2 33841  74.0378 264.3028 0020848 343.2857 169.0859 14.37870570882210"}}, "geometry": {"type": "Point", "coordinates": [32.08503973923271, 69.90304881214341]}}, {"type": "Feature", "properties": {"norad_id": 33842, "name": "COSMOS 2251 DEB", "group": "cosmos-2251-debris", "lat": 43.86603235550736, "lon": 9.06930741932001, "alt_km": 779.3090013173651, "timestamp": "2025-12-20T14:38:02.361885+00:00", "meta": {"OBJECT_NAME": "COSMOS 2251 DEB", "OBJECT_ID": "1993-036CK", "EPOCH": "2025-12-20T00:42:01.121760", "MEAN_MOTION": 14.42710574, "ECCENTRICITY": 0.00474815, "INCLINATION": 74.0319, "RA_OF_ASC_NODE": 206.1214, "ARG_OF_PERICENTER": 311.9968, "MEAN_ANOMALY": 47.7149, "EPHEMERIS_TYPE": 0, "CLASSIFICATION_TYPE": "U", "NORAD_CAT_ID": 33842, "ELEMENT_SET_NO": 999, "REV_AT_EPOCH": 88442, "BSTAR": 0.00019230518, "MEAN_MOTION_DOT": 6.21e-06, "MEAN_MOTION_DDOT": 0}, "tle": {"line1": "1 33842U 93036CK  25354.02917965  .00000621  00000+0  19231-3 0  9996", "line2": "2 33842  74.0319 206.1214 0047481 311.9968  47.7149 14.42710574884426"}}, "geometry": {"type": "Point", "coordinates": [9.06930741932001, 43.86603235550736]}}, {"type": "Feature", "properties": {"norad_id": 33844, "name": "COSMOS 2251 DEB", "group": "cosmos-2251-debris", "lat": 8.891956429968873, "lon": -144.15060674375164, "alt_km": 793.6003869641108, "timestamp": "2025-12-20T14:38:02.361896+00:00", "meta": {"OBJECT_NAME": "COSMOS 2251 DEB", "OBJECT_ID": "1993-036CM", "EPOCH": "2025-12-20T05:48:29.979360", "MEAN_MOTION": 14.33730182, "ECCENTRICITY": 0.00470935, "INCLINATION": 74.0667, "RA_OF_ASC_NODE": 39.0821, "ARG_OF_PERICENTER": 58.5943, "MEAN_ANOMALY": 14.2655, "EPHEMERIS_TYPE": 0, "CLASSIFICATION_TYPE": "U", "NORAD_CAT_ID": 33844, "ELEMENT_SET_NO": 999, "REV_AT_EPOCH": 87833, "BSTAR": 0.00025664937, "MEAN_MOTION_DOT": 6.96e-06, "MEAN_MOTION_DDOT": 0}, "tle": {"line1": "1 33844U 93036CM  25354.24201365  .00000696  00000+0  25665-3 0  9992", "line2": "2 33844  74.0667  39.0821 0047093  58.5943  14.2655 14.33730182878338"}}, "geometry": {"type": "Point", "coordinates": [-144.15060674375164, 8.891956429968873]}}, {"type": "Feature", "properties": {"norad_id": 33848, "name": "COSMOS 2251 DEB", "group": "cosmos-2251-debris", "lat": -69.92313390101906, "lon": -68.57653158724071, "alt_km": 763.8780531324846, "timestamp": "2025-12-20T14:38:02.361906+00:00", "meta": {"OBJECT_NAME": "COSMOS 2251 DEB", "OBJECT_ID": "1993-036CR", "EPOCH": "2025-12-20T00:17:50.671392", "MEAN_MOTION": 14.44106795, "ECCENTRICITY": 0.0041552, "INCLINATION": 74.0315, "RA_OF_ASC_NODE": 344.1104, "ARG_OF_PERICENTER": 37.7329, "MEAN_ANOMALY": 20.7691, "EPHEMERIS_TYPE": 0, "CLASSIFICATION_TYPE": "U", "NORAD_CAT_ID": 33848, "ELEMENT_SET_NO": 999, "REV_AT_EPOCH": 87936, "BSTAR": 0.00073116658, "MEAN_MOTION_DOT": 2.505e-05, "MEAN_MOTION_DDOT": 0}, "tle": {"line1": "1 33848U 93036CR  25354.01239203  .00002505  00000+0  73117-3 0  9999", "line2": "2 33848  74.0315 344.1104 0041552  37.7329  20.7691 14.44106795879362"}}, "geometry": {"type": "Point", "coordinates": [-68.57653158724071, -69.92313390101906]}}, {"type": "Feature", "properties": {"norad_id": 33892, "name": "COSMOS 2251 DEB", "group": "cosmos-2251-debris", "lat": -19.688550605239737, "lon": 81.731256346471, "alt_km": 878.3116596475784, "timestamp": "2025-12-20T14:38:02.361916+00:00", "meta": {"OBJECT_NAME": "COSMOS 2251 DEB", "OBJECT_ID": "1993-036CV", "EPOCH": "2025-12-20T00:22:08.893344", "MEAN_MOTION": 14.23361225, "ECCENTRICITY": 0.01124489, "INCLINATION": 73.8027, "RA_OF_ASC_NODE": 88.7851, "ARG_OF_PERICENTER": 118.6054, "MEAN_ANOMALY": 57.4187, "EPHEMERIS_TYPE": 0, "CLASSIFICATION_TYPE": "U", "NORAD_CAT_ID": 33892, "ELEMENT_SET_NO": 999, "REV_AT_EPOCH": 87058, "BSTAR": 0.0004540357, "MEAN_MOTION_DOT": 1.073e-05, "MEAN_MOTION_DDOT": 0}, "tle": {"line1": "1 33892U 93036CV  25354.01538071  .00001073  00000+0  45404-3 0  9990", "line2": "2 33892  73.8027  88.7851 0112448 118.6054  57.4187 14.23361225870585"}}, "geometry": {"type": "Point", "coordinates": [81.731256346471, -19.688550605239737]}}, {"type": "Feature", "properties": {"norad_id": 33894, "name": "COSMOS 2251 DEB", "group": "cosmos-2251-debris", "lat": -57.69772574427057, "lon": -175.6614149569999, "alt_km": 759.654554811973, "timestamp": "2025-12-20T14:38:02.361926+00:00", "meta": {"OBJECT_NAME": "COSMOS 2251 DEB", "OBJECT_ID": "1993-036CX", "EPOCH": "2025-12-19T22:50:18.443904", "MEAN_MOTION": 13.21320525, "ECCENTRICITY": 0.05791531, "INCLINATION": 73.767, "RA_OF_ASC_NODE": 337.9187, "ARG_OF_PERICENTER": 256.3901, "MEAN_ANOMALY": 97.2081, "EPHEMERIS_TYPE": 0, "CLASSIFICATION_TYPE": "U", "NORAD_CAT_ID": 33894, "ELEMENT_SET_NO": 999, "REV_AT_EPOCH": 80803, "BSTAR": 0.00109059, "MEAN_MOTION_DOT": 1.062e-05, "MEAN_MOTION_DDOT": 0}, "tle": {"line1": "1 33894U 93036CX  25353.95160236  .00001062  00000+0  10906-2 0  9994", "line2": "2 33894  73.7670 337.9187 0579153 256.3901  97.2081 13.21320525808033"}}, "geometry": {"type": "Point", "coordinates": [-175.6614149569999, -57.69772574427057]}}, {"type": "Feature", "properties": {"norad_id": 33896, "name": "COSMOS 2251 DEB", "group": "cosmos-2251-debris", "lat": -66.66176431945257, "lon": 99.92073754834226, "alt_km": 755.8334833899007, "timestamp": "2025-12-20T14:38:02.361937+00:00", "meta": {"OBJECT_NAME": "COSMOS 2251 DEB", "OBJECT_ID": "1993-036CZ", "EPOCH": "2025-12-19T20:54:55.245600", "MEAN_MOTION": 14.19053906, "ECCENTRICITY": 0.01268079, "INCLINATION": 73.7663, "RA_OF_ASC_NODE": 143.7355, "ARG_OF_PERICENTER": 318.2939, "MEAN_ANOMALY": 159.354, "EPHEMERIS_TYPE": 0, "CLASSIFICATION_TYPE": "U", "NORAD_CAT_ID": 33896, "ELEMENT_SET_NO": 999, "REV_AT_EPOCH": 86841, "BSTAR": 0.00030590791, "MEAN_MOTION_DOT": 6.64e-06, "MEAN_MOTION_DDOT": 0}, "tle": {"line1": "1 33896U 93036CZ  25353.87147275  .00000664  00000+0  30591-3 0  9995", "line2": "2 33896  73.7663 143.7355 0126807 318.2939 159.3540 14.19053906868412"}}, "geometry": {"type": "Point", "coordinates": [99.92073754834226, -66.66176431945257]}}, {"type": "Feature", "properties": {"norad_id": 33899, "name": "COSMOS 2251 DEB", "group": "cosmos-2251-debris", "lat": 56.55925237409845, "lon": 96.34857848161737, "alt_km": 670.1258336582969, "timestamp": "2025-12-20T14:38:02.361947+00:00", "meta": {"OBJECT_NAME": "COSMOS 2251 DEB", "OBJECT_ID": "1993-036DC", "EPOCH": "2025-12-20T04:37:37.423200", "MEAN_MOTION": 14.61249146, "ECCENTRICITY": 0.00562569, "INCLINATION": 74.0544, "RA_OF_ASC_NODE": 71.4909, "ARG_OF_PERICENTER": 132.0189, "MEAN_ANOMALY": 256.3671, "EPHEMERIS_TYPE": 0, "CLASSIFICATION_TYPE": "U", "NORAD_CAT_ID": 33899, "ELEMENT_SET_NO": 999, "REV_AT_EPOCH": 88948, "BSTAR": 0.0005222702, "MEAN_MOTION_DOT": 2.604e-05, "MEAN_MOTION_DDOT": 0}, "tle": {"line1": "1 33899U 93036DC  25354.19279425  .00002604  00000+0  52227-3 0  9993", "line2": "2 33899  74.0544  71.4909 0056256 132.0189 256.3671 14.61249146889481"}}, "geometry": {"type": "Point", "coordinates": [96.34857848161737, 56.55925237409845]}}, {"type": "Feature", "properties": {"norad_id": 33900, "name": "COSMOS 2251 DEB", "group": "cosmos-2251-debris", "lat": 14.08809746454743, "lon": -11.007487651729251, "alt_km": 715.3781832656914, "timestamp": "2025-12-20T14:38:02.361956+00:00", "meta": {"OBJECT_NAME": "COSMOS 2251 DEB", "OBJECT_ID": "1993-036DD", "EPOCH": "2025-12-20T05:16:40.848672", "MEAN_MOTION": 14.5837094, "ECCENTRICITY": 0.00465064, "INCLINATION": 74.0182, "RA_OF_ASC_NODE": 345.6105, "ARG_OF_PERICENTER": 135.5507, "MEAN_ANOMALY": 353.8553, "EPHEMERIS_TYPE": 0, "CLASSIFICATION_TYPE": "U", "NORAD_CAT_ID": 33900, "ELEMENT_SET_NO": 999, "REV_AT_EPOCH": 89145, "BSTAR": 0.00026700658, "MEAN_MOTION_DOT": 1.225e-05, "MEAN_MOTION_DDOT": 0}, "tle": {"line1": "1 33900U 93036DD  25354.21991723  .00001225  00000+0  26701-3 0  9997", "line2": "2 33900  74.0182 345.6105 0046506 135.5507 353.8553 14.58370940891450"}}, "geometry": {"type": "Point", "coordinates": [-11.007487651729251, 14.08809746454743]}}, {"type": "Feature", "properties": {"norad_id": 33901, "name": "COSMOS 2251 DEB", "group": "cosmos-2251-debris", "lat": -17.58988162049252, "lon": -142.0729246847597, "alt_km": 503.0502302268742, "timestamp": "2025-12-20T14:38:02.361966+00:00", "meta": {"OBJECT_NAME": "COSMOS 2251 DEB", "OBJECT_ID": "1993-036DE", "EPOCH": "2025-12-19T02:56:08.950848", "MEAN_MOTION": 15.16598478, "ECCENTRICITY": 0.00304962, "INCLINATION": 73.7756, "RA_OF_ASC_NODE": 35.78, "ARG_OF_PERICENTER": 167.4201, "MEAN_ANOMALY": 192.7762, "EPHEMERIS_TYPE": 0, "CLASSIFICATION_TYPE": "U", "NORAD_CAT_ID": 33901, "ELEMENT_SET_NO": 999, "REV_AT_EPOCH": 89610, "BSTAR": 0.0019812592, "MEAN_MOTION_DOT": 0.00039348, "MEAN_MOTION_DDOT": 0}, "tle": {"line1": "1 33901U 93036DE  25353.12232582  .00039348  00000+0  19813-2 0  9990", "line2": "2 33901  73.7756  35.7800 0030496 167.4201 192.7762 15.16598478896101"}}, "geometry": {"type": "Point", "coordinates": [-142.0729246847597, -17.58988162049252]}}]}